NORAD_CAT_ID,OBJECT_NAME,OBJECT_TYPE,EPOCH,MEAN_MOTION,ECCENTRICITY,INCLINATION,RA_OF_ASC_NODE,ARG_OF_PERICENTER,MEAN_ANOMALY,BSTAR,MEAN_MOTION_DOT,MEAN_MOTION_DDOT,TLE_LINE0,TLE_LINE1,TLE_LINE2,SEMIMAJOR_AXIS,PERIOD,APOGEE,PERIGEE,DECAYED
56492.0,STARLINK-5846,PAYLOAD,2024-06-03 15:49:44,14.98335618,0.0003141,69.9995,288.2563,270.5854,89.4945,0.00014155,1.597e-05,0.0,0 STARLINK-5846,1 56492U 23064AW  24155.65954333  .00001597  00000-0  14155-3 0  9997,2 56492  69.9995 288.2563 0003141 270.5854  89.4945 14.98335618 59763,6950.176,96.107,574.224,569.857,0.0
56492.0,STARLINK-5846,PAYLOAD,2024-06-04 11:03:21,14.98334517,0.0003129,69.9993,286.2364,270.8496,89.2305,0.00013813,1.556e-05,0.0,0 STARLINK-5846,1 56492U 23064AW  24156.46066289  .00001556  00000-0  13813-3 0  9996,2 56492  69.9993 286.2364 0003129 270.8496  89.2305 14.98334517 60249,6950.179,96.107,574.219,569.869,0.0
56492.0,STARLINK-5846,PAYLOAD,2024-06-05 11:05:23,14.98324548,0.000298,69.9995,283.7117,269.8374,90.2444,-0.00011523,-1.467e-05,0.0,0 STARLINK-5846,1 56492U 23064AW  24157.46207299 -.00001467  00000-0 -11523-3 0  9994,2 56492  69.9995 283.7117 0002980 269.8374  90.2444 14.98324548 60391,6950.21,96.107,574.146,570.004,0.0
56492.0,STARLINK-5846,PAYLOAD,2024-06-05 14:17:39,14.9832728,0.0002886,69.9996,283.3751,268.9098,91.1731,-8.2494e-05,-1.077e-05,0.0,0 STARLINK-5846,1 56492U 23064AW  24157.59559080 -.00001077  00000-0 -82494-4 0  9999,2 56492  69.9996 283.3751 0002886 268.9098  91.1731 14.98327280 60058,6950.201,96.107,574.072,570.06,0.0
56492.0,STARLINK-5846,PAYLOAD,2024-06-06 11:07:23,14.98332985,0.00031,69.9994,281.1869,272.645,87.4354,-4.0104e-06,-1.41e-06,0.0,0 STARLINK-5846,1 56492U 23064AW  24158.46346610 -.00000141  00000-0 -40104-5 0  9993,2 56492  69.9994 281.1869 0003100 272.6450  87.4354 14.98332985 60547,6950.184,96.107,574.203,569.894,0.0
56492.0,STARLINK-5846,PAYLOAD,2024-06-07 09:33:16,14.98323796,0.0002985,69.9997,278.8303,268.2589,91.8228,0.00017827,2.034e-05,0.0,0 STARLINK-5846,1 56492U 23064AW  24159.39810926  .00002034  00000-0  17827-3 0  9997,2 56492  69.9997 278.8303 0002985 268.2589  91.8228 14.98323796 60684,6950.212,96.107,574.152,570.002,0.0
56492.0,STARLINK-5846,PAYLOAD,2024-06-07 14:21:40,14.98334812,0.000345,69.9998,278.325,269.7155,90.3608,0.00010068,1.109e-05,0.0,0 STARLINK-5846,1 56492U 23064AW  24159.59838456  .00001109  00000-0  10068-3 0  9999,2 56492  69.9998 278.3250 0003450 269.7155  90.3608 14.98334812 60355,6950.178,96.107,574.441,569.645,0.0
56492.0,STARLINK-5846,PAYLOAD,2024-06-08 11:11:25,14.98333881,0.0003163,69.9989,276.1359,266.6915,93.3882,0.00016434,1.869e-05,0.0,0 STARLINK-5846,1 56492U 23064AW  24160.46626368  .00001869  00000-0  16434-3 0  9990,2 56492  69.9989 276.1359 0003163 266.6915  93.3882 14.98333881 60488,6950.181,96.107,574.244,569.848,0.0
56492.0,STARLINK-5846,PAYLOAD,2024-06-09 01:36:37,14.98336305,0.0002935,69.9985,274.6183,260.7936,99.2891,9.2052e-05,1.006e-05,0.0,0 STARLINK-5846,1 56492U 23064AW  24161.06710175  .00001006  00000-0  92052-4 0  9991,2 56492  69.9985 274.6183 0002935 260.7936  99.2891 14.98336305 60935,6950.173,96.107,574.078,569.999,0.0
56492.0,STARLINK-5846,PAYLOAD,2024-06-09 11:13:27,14.98322072,0.0002991,69.9986,273.6094,265.8849,94.1968,-6.7877e-05,-9.03e-06,0.0,0 STARLINK-5846,1 56492U 23064AW  24161.46767437 -.00000903  00000-0 -67877-4 0  9992,2 56492  69.9986 273.6094 0002991 265.8849  94.1968 14.98322072 60998,6950.217,96.108,574.161,570.004,0.0
56492.0,STARLINK-5846,PAYLOAD,2024-06-09 14:25:43,14.98323463,0.000302,69.9992,273.2747,271.5118,88.5696,-4.8346e-05,-6.7e-06,0.0,0 STARLINK-5846,1 56492U 23064AW  24161.60119420 -.00000670  00000-0 -48346-4 0  9992,2 56492  69.9992 273.2747 0003020 271.5118  88.5696 14.98323463 60656,6950.213,96.107,574.177,569.979,0.0
56492.0,STARLINK-5846,PAYLOAD,2024-06-09 17:37:59,14.98322495,0.000301,69.9994,272.9383,270.9493,89.1321,-5.9608e-05,-8.04e-06,0.0,0 STARLINK-5846,1 56492U 23064AW  24161.73471549 -.00000804  00000-0 -59608-4 0  9991,2 56492  69.9994 272.9383 0003010 270.9493  89.1321 14.98322495 60676,6950.216,96.107,574.173,569.989,0.0
56492.0,STARLINK-5846,PAYLOAD,2024-06-10 11:15:27,14.9833626,0.0003029,69.9998,271.0868,274.2961,85.7852,9.1438e-05,9.98e-06,0.0,0 STARLINK-5846,1 56492U 23064AW  24162.46906439  .00000998  00000-0  91438-4 0  9992,2 56492  69.9998 271.0868 0003029 274.2961  85.7852 14.98336260 61144,6950.174,96.107,574.144,569.933,0.0
56492.0,STARLINK-5846,PAYLOAD,2024-06-10 14:27:43,14.98341829,0.0002575,69.9996,270.7501,256.9961,103.091,4.5748e-05,4.53e-06,0.0,0 STARLINK-5846,1 56492U 23064AW  24162.60258114  .00000453  00000-0  45748-4 0  9997,2 56492  69.9996 270.7501 0002575 256.9961 103.0910 14.98341829 60802,6950.156,96.106,573.811,570.232,0.0
56492.0,STARLINK-5846,PAYLOAD,2024-06-10 16:03:50,14.98346287,0.0002588,69.9997,270.5818,258.263,101.8239,5.5547e-05,5.7e-06,0.0,0 STARLINK-5846,1 56492U 23064AW  24162.66933795  .00000570  00000-0  55547-4 0  9996,2 56492  69.9997 270.5818 0002588 258.2630 101.8239 14.98346287 61178,6950.143,96.106,573.806,570.209,0.0
56492.0,STARLINK-5846,PAYLOAD,2024-06-11 00:04:31,14.98333471,0.0003113,70.0007,269.7401,276.5581,83.5224,0.00044727,5.248e-05,0.0,0 STARLINK-5846,1 56492U 23064AW  24163.00314490  .00005248  00000-0  44727-3 0  9994,2 56492  70.0007 269.7401 0003113 276.5581  83.5224 14.98333471 61221,6950.182,96.107,574.211,569.884,0.0
56492.0,STARLINK-5846,PAYLOAD,2024-06-11 12:53:36,14.98336203,0.0002885,70.0012,268.394,272.0351,88.0477,0.00036129,4.221e-05,0.0,0 STARLINK-5846,1 56492U 23064AW  24163.53722410  .00004221  00000-0  36129-3 0  9994,2 56492  70.0012 268.3940 0002885 272.0351  88.0477 14.98336203 60945,6950.174,96.107,574.044,570.034,0.0
56492.0,STARLINK-5846,PAYLOAD,2024-06-12 00:06:32,14.98336538,0.0003069,70.0015,267.2152,273.2635,86.8173,0.00014916,1.687e-05,0.0,0 STARLINK-5846,1 56492U 23064AW  24164.00454177  .00001687  00000-0  14916-3 0  9992,2 56492  70.0015 267.2152 0003069 273.2635  86.8173 14.98336538 61372,6950.173,96.107,574.171,569.905,0.0
56492.0,STARLINK-5846,PAYLOAD,2024-06-12 06:31:04,14.98330341,0.0002746,70.0015,266.543,269.7231,90.3613,-5.7858e-05,-7.83e-06,0.0,0 STARLINK-5846,1 56492U 23064AW  24164.27158434 -.00000783  00000-0 -57858-4 0  9999,2 56492  70.0015 266.5430 0002746 269.7231  90.3613 14.98330341 61056,6950.192,96.107,573.965,570.148,0.0
56492.0,STARLINK-5846,PAYLOAD,2024-06-12 12:55:37,14.9832669,0.0002902,70.0011,265.8696,268.8477,91.235,-9.5932e-05,-1.237e-05,0.0,0 STARLINK-5846,1 56492U 23064AW  24164.53862688 -.00001237  00000-0 -95932-4 0  9991,2 56492  70.0011 265.8696 0002902 268.8477  91.2350 14.98326690 61458,6950.203,96.107,574.085,570.051,0.0
56492.0,STARLINK-5846,PAYLOAD,2024-06-12 16:07:53,14.98325474,0.0002974,70.001,265.5335,269.2501,90.8317,-0.00013325,-1.682e-05,0.0,0 STARLINK-5846,1 56492U 23064AW  24164.67214803 -.00001682  00000-0 -13325-3 0  9995,2 56492  70.0010 265.5335 0002974 269.2501  90.8317 14.98325474 61116,6950.207,96.107,574.139,570.005,0.0
56492.0,STARLINK-5846,PAYLOAD,2024-06-13 12:57:37,14.98335842,0.0003097,69.9998,263.345,268.6297,91.4507,0.00011982,1.337e-05,0.0,0 STARLINK-5846,1 56492U 23064AW  24165.54002311  .00001337  00000-0  11982-3 0  9993,2 56492  69.9998 263.3450 0003097 268.6297  91.4507 14.98335842 61606,6950.175,96.107,574.192,569.887,0.0
56492.0,STARLINK-5846,PAYLOAD,2024-06-13 14:33:46,14.98334638,0.000307,69.9999,263.1766,268.4371,91.6437,0.00010564,1.168e-05,0.0,0 STARLINK-5846,1 56492U 23064AW  24165.60678411  .00001168  00000-0  10564-3 0  9997,2 56492  69.9999 263.1766 0003070 268.4371  91.6437 14.98334638 61254,6950.179,96.107,574.177,569.91,0.0
56492.0,STARLINK-5846,PAYLOAD,2024-06-13 16:09:54,14.98333926,0.0003184,69.9998,263.0083,269.6852,90.3942,0.00013551,1.524e-05,0.0,0 STARLINK-5846,1 56492U 23064AW  24165.67354413  .00001524  00000-0  13551-3 0  9992,2 56492  69.9998 263.0083 0003184 269.6852  90.3942 14.98333926 61264,6950.181,96.107,574.259,569.833,0.0
56492.0,STARLINK-5846,PAYLOAD,2024-06-14 14:35:47,14.98333923,0.0003246,70.0002,260.65,267.0765,93.0022,0.00025463,2.947e-05,0.0,0 STARLINK-5846,1 56492U 23064AW  24166.60818497  .00002947  00000-0  25463-3 0  9998,2 56492  70.0002 260.6500 0003246 267.0765  93.0022 14.98333923 61406,6950.181,96.107,574.302,569.79,0.0
56492.0,STARLINK-5846,PAYLOAD,2024-06-15 14:37:47,14.9834081,0.0003198,70.0002,258.1241,266.5164,93.563,0.00017026,1.94e-05,0.0,0 STARLINK-5846,1 56492U 23064AW  24167.60957824  .00001940  00000-0  17026-3 0  9995,2 56492  70.0002 258.1241 0003198 266.5164  93.5630 14.98340810 61552,6950.159,96.106,574.247,569.802,0.0
56492.0,STARLINK-5846,PAYLOAD,2024-06-15 16:13:55,14.98342009,0.00032,70.0003,257.9558,266.5882,93.4911,0.00018886,2.162e-05,0.0,0 STARLINK-5846,1 56492U 23064AW  24167.67633724  .00002162  00000-0  18886-3 0  9994,2 56492  70.0003 257.9558 0003200 266.5882  93.4911 14.98342009 61566,6950.156,96.106,574.245,569.797,0.0
56492.0,STARLINK-5846,PAYLOAD,2024-06-16 13:03:40,14.98333691,0.0003066,69.9995,255.7686,271.6083,88.4724,0.00011032,1.224e-05,0.0,0 STARLINK-5846,1 56492U 23064AW  24168.54422103  .00001224  00000-0  11032-3 0  9992,2 56492  69.9995 255.7686 0003066 271.6083  88.4724 14.98333691 61698,6950.181,96.107,574.177,569.916,0.0
56492.0,STARLINK-5846,PAYLOAD,2024-06-16 22:40:29,14.98332916,0.0003007,69.9997,254.7583,271.3126,88.7688,3.5548e-05,3.31e-06,0.0,0 STARLINK-5846,1 56492U 23064AW  24168.94478135  .00000331  00000-0  35548-4 0  9999,2 56492  69.9997 254.7583 0003007 271.3126  88.7688 14.98332916 61753,6950.184,96.107,574.139,569.959,0.0
56492.0,STARLINK-5846,PAYLOAD,2024-06-17 11:29:34,14.98317917,0.0003051,69.9996,253.4129,269.6106,90.4704,0.00022987,2.65e-05,0.0,0 STARLINK-5846,1 56492U 23064AW  24169.47886855  .00002650  00000-0  22987-3 0  9998,2 56492  69.9996 253.4129 0003051 269.6106  90.4704 14.98317917 61833,6950.23,96.108,574.216,569.975,0.0
